{
    "links": {
        "self": "http://www.neowsapp.com/rest/v1/neo/3455314?api_key=iIulBulltgU6a56xZRHN4H3l9WmuAYTsLGpBGhQ2"
    },
    "id": "3455314",
    "neo_reference_id": "3455314",
    "name": "(2009 FP28)",
    "designation": "2009 FP28",
    "nasa_jpl_url": "http://ssd.jpl.nasa.gov/sbdb.cgi?sstr=3455314",
    "absolute_magnitude_h": 20.8,
    "estimated_diameter": {
        "kilometers": {
            "estimated_diameter_min": 0.1838886721,
            "estimated_diameter_max": 0.411187571
        },
        "meters": {
            "estimated_diameter_min": 183.8886720703,
            "estimated_diameter_max": 411.1875710413
        },
        "miles": {
            "estimated_diameter_min": 0.1142630881,
            "estimated_diameter_max": 0.2555000322
        },
        "feet": {
            "estimated_diameter_min": 603.309310875,
            "estimated_diameter_max": 1349.040630575
        }
    },
    "is_potentially_hazardous_asteroid": false,
    "close_approach_data": [
        {
            "close_approach_date": "2009-04-26",
            "close_approach_date_full": "2009-Apr-26 19:35",
            "epoch_date_close_approach": 1240774500000,
            "relative_velocity": {
                "kilometers_per_second": "11.373048898",
                "kilometers_per_hour": "40942.9760329004",
                "miles_per_hour": "25440.3730799986"
            },
            "miss_distance": {
                "astronomical": "0.1004354228",
                "lunar": "39.0693794692",
                "kilometers": "15024925.323429436",
                "miles": "9336055.6773247768"
            },
            "orbiting_body": "Earth"
        }
    ],
    "orbital_data": {
        "orbit_id": "12",
        "orbit_determination_date": "2017-04-06 09:00:53",
        "first_observation_date": "2009-03-25",
        "last_observation_date": "2009-04-16",
        "data_arc_in_days": 22,
        "observations_used": 24,
        "orbit_uncertainty": "8",
        "minimum_orbit_intersection": ".0833098",
        "jupiter_tisserand_invariant": "3.625",
        "epoch_osculation": "2454922.5",
        "eccentricity": ".5478738337162632",
        "semi_major_axis": "2.003124055163657",
        "inclination": "8.196821952024299",
        "ascending_node_longitude": "256.2279943973107",
        "orbital_period": "1035.524065686316",
        "perihelion_distance": ".9056647996518766",
        "perihelion_argument": "353.5885413654865",
        "aphelion_distance": "3.100583310675437",
        "perihelion_time": "2454972.664708534144",
        "mean_anomaly": "342.5602362410355",
        "mean_motion": ".3476500565550856",
        "equinox": "J2000",
        "orbit_class": {
            "orbit_class_type": "APO",
            "orbit_class_description": "Near-Earth asteroid orbits which cross the Earth’s orbit similar to that of 1862 Apollo",
            "orbit_class_range": "a (semi-major axis) > 1.0 AU; q (perihelion) < 1.017 AU"
        }
    },
    "is_sentry_object": false
}